ONEWEB-0086             
1 45456U 20020AJ  23260.39094510 -.00000483  00000+0 -13998-2 0  9990
2 45456  87.8947 220.4454 0002321  91.5598 268.5796 13.11418006171046
ONEWEB-0088             
1 45457U 20020AK  23261.13062063  .00000018  00000+0  15573-4 0  9997
2 45457  87.8944 220.2797 0001953  84.4272 275.7078 13.11414952171085
ONEWEB-0102             
1 47258U 20100A   23261.08202117 -.00000048  00000+0 -17010-3 0  9999
2 47258  87.9066 190.0900 0002192  68.4554 291.6808 13.12444571133158
ONEWEB-0109             
1 47259U 20100B   23260.33023808  .00000539  00000+0  14622-2 0  9993
2 47259  87.9001 190.2368 0001976  75.5682 284.5666 13.12444739132886
ONEWEB-0110             
1 47260U 20100C   23261.34461328  .00000435  00000+0  11740-2 0  9993
2 47260  87.9068 190.0200 0002112  72.9117 287.2242 13.12443368133182
ONEWEB-0111             
1 47261U 20100D   23260.30904721 -.00000205  00000+0 -60555-3 0  9994
2 47261  87.9081 190.2122 0002011  73.2099 286.9250 13.12445557132887
ONEWEB-0114             
1 47262U 20100E   23260.34082145  .00000467  00000+0  12618-2 0  9990
2 47262  87.9066 190.2288 0001927  57.9851 302.1464 13.12440730132846
ONEWEB-0117             
1 47263U 20100F   23261.32342294  .00000429  00000+0  11567-2 0  9994
2 47263  87.9000 190.0503 0001963  75.7432 284.3914 13.12445154132987
